[{"OBJECT_NAME":"GEESAT-1 07","OBJECT_ID":"2022-058G","EPOCH":"2026-03-09T22:03:59.499360","MEAN_MOTION":14.81010409,"ECCENTRICITY":0.0013079,"INCLINATION":49.9882,"RA_OF_ASC_NODE":299.8665,"ARG_OF_PERICENTER":75.3998,"MEAN_ANOMALY":284.8389,"EPHEMERIS_TYPE":0,"CLASSIFICATION_TYPE":"U","NORAD_CAT_ID":52791,"ELEMENT_SET_NO":999,"REV_AT_EPOCH":20521,"BSTAR":0.0003741149,"MEAN_MOTION_DOT":2.71e-5,"MEAN_MOTION_DDOT":0},{"OBJECT_NAME":"CZ-4C DEB","OBJECT_ID":"2010-038E","EPOCH":"2026-03-08T13:52:01.201152","MEAN_MOTION":14.99820212,"ECCENTRICITY":0.00772359,"INCLINATION":97.9453,"RA_OF_ASC_NODE":199.3713,"ARG_OF_PERICENTER":309.8702,"MEAN_ANOMALY":49.5744,"EPHEMERIS_TYPE":0,"CLASSIFICATION_TYPE":"U","NORAD_CAT_ID":37569,"ELEMENT_SET_NO":999,"REV_AT_EPOCH":82446,"BSTAR":0.0019249603,"MEAN_MOTION_DOT":0.00025376,"MEAN_MOTION_DDOT":0}]
